[{"OBJECT_NAME":"BRO-11","OBJECT_ID":"2023-174J","EPOCH":"2026-03-09T23:01:09.890400","MEAN_MOTION":15.26267731,"ECCENTRICITY":0.00104518,"INCLINATION":97.3961,"RA_OF_ASC_NODE":146.7679,"ARG_OF_PERICENTER":189.9892,"MEAN_ANOMALY":170.1141,"EPHEMERIS_TYPE":0,"CLASSIFICATION_TYPE":"U","NORAD_CAT_ID":58264,"ELEMENT_SET_NO":999,"REV_AT_EPOCH":12961,"BSTAR":0.00032296323,"MEAN_MOTION_DOT":8.313e-5,"MEAN_MOTION_DDOT":0},{"OBJECT_NAME":"STARLINK-32778","OBJECT_ID":"2025-008S","EPOCH":"2026-03-09T00:02:45.356640","MEAN_MOTION":15.27606177,"ECCENTRICITY":0.00024982,"INCLINATION":43.0038,"RA_OF_ASC_NODE":282.2901,"ARG_OF_PERICENTER":277.9089,"MEAN_ANOMALY":82.1479,"EPHEMERIS_TYPE":0,"CLASSIFICATION_TYPE":"U","NORAD_CAT_ID":62603,"ELEMENT_SET_NO":999,"REV_AT_EPOCH":6545,"BSTAR":0.0012959095,"MEAN_MOTION_DOT":0.00035601,"MEAN_MOTION_DDOT":0}]
